ONEWEB-0032             
1 45141U 20008L   23296.85771136 -.00000416  00000+0 -12288-2 0  9990
2 45141  87.8914 228.4012 0001957  70.4066 289.7272 13.10376831181615
ONEWEB-0033             
1 45142U 20008M   23296.90807602 -.00000259  00000+0 -77957-3 0  9995
2 45142  87.8907 228.3988 0001655  70.4749 289.6557 13.10370916181536
ONEWEB-0035             
1 45143U 20008N   23296.86420638 -.00004059  00000+0 -11666-1 0  9996
2 45143  87.8910 228.3802 0002413  69.8220 290.3167 13.10398510182149
ONEWEB-0036             
1 45144U 20008P   23296.85447742  .00001182  00000+0  33508-2 0  9993
2 45144  87.8916 228.3438 0002666  78.1426 282.0000 13.10369494181683
ONEWEB-0038             
1 45145U 20008Q   23296.78928974 -.00000478  00000+0 -13840-2 0  9993
2 45145  87.9006 213.2439 0002540  60.1739 299.9641 13.11415369183536
ONEWEB-0039             
1 45146U 20008R   23296.83496779 -.00000503  00000+0 -14759-2 0  9992
2 45146  87.8902 228.3664 0002404  80.0717 280.0681 13.10371513182258
ONEWEB-0040             
1 45147U 20008S   23296.90483833 -.00000208  00000+0 -63246-3 0  9996
2 45147  87.8908 228.3387 0001991  74.2095 285.9252 13.10370944181187
ONEWEB-0041             
1 45148U 20008T   23296.78778863  .00000106  00000+0  14873-3 0  9990
2 45148  87.9462 204.8115 0019038 121.0711 239.2310 13.48420561187678
